{"type": "FeatureCollection", "features": [ {"type": "Feature", "properties": {"norad_id": 30960, "name": "FENGYUN 1C DEB", "group": "fengyun-1c-debris", "lat": 8.275238976152314, "lon": 92.79904359621034, "alt_km": 811.9084580221725, "timestamp": "2025-12-04T21:36:16.152648+00:00", "meta": {"OBJECT_NAME": "FENGYUN 1C DEB", "OBJECT_ID": "1999-025BBA", "EPOCH": "2025-12-04T13:22:39.780768", "MEAN_MOTION": 14.66591263, "ECCENTRICITY": 0.01960744, "INCLINATION": 99.0009, "RA_OF_ASC_NODE": 93.744, "ARG_OF_PERICENTER": 187.6876, "MEAN_ANOMALY": 172.1309, "EPHEMERIS_TYPE": 0, "CLASSIFICATION_TYPE": "U", "NORAD_CAT_ID": 30960, "ELEMENT_SET_NO": 999, "REV_AT_EPOCH": 98578, "BSTAR": 0.0033170499, "MEAN_MOTION_DOT": 0.00024577, "MEAN_MOTION_DDOT": 0}, "tle": {"line1": "1 30960U 99025BBA 25338.55740487  .00024577  00000+0  33170-2 0  9994", "line2": "2 30960  99.0009  93.7440 0196074 187.6876 172.1309 14.66591263985787"}}, "geometry": {"type": "Point", "coordinates": [92.79904359621034, 8.275238976152314]}}, {"type": "Feature", "properties": {"norad_id": 30967, "name": "FENGYUN 1C DEB", "group": "fengyun-1c-debris", "lat": 31.971095307997206, "lon": 110.23637158908038, "alt_km": 730.4770535428952, "timestamp": "2025-12-04T21:36:16.152658+00:00", "meta": {"OBJECT_NAME": "FENGYUN 1C DEB", "OBJECT_ID": "1999-025BBH", "EPOCH": "2025-12-02T19:28:31.282752", "MEAN_MOTION": 14.57001959, "ECCENTRICITY": 0.00949855, "INCLINATION": 98.7625, "RA_OF_ASC_NODE": 282.5159, "ARG_OF_PERICENTER": 270.4458, "MEAN_ANOMALY": 88.5855, "EPHEMERIS_TYPE": 0, "CLASSIFICATION_TYPE": "U", "NORAD_CAT_ID": 30967, "ELEMENT_SET_NO": 999, "REV_AT_EPOCH": 98869, "BSTAR": 0.0013117286, "MEAN_MOTION_DOT": 6.22e-05, "MEAN_MOTION_DDOT": 0}, "tle": {"line1": "1 30967U 99025BBH 25336.81147318  .00006220  00000+0  13117-2 0  9996", "line2": "2 30967  98.7625 282.5159 0094985 270.4458  88.5855 14.57001959988691"}}, "geometry": {"type": "Point", "coordinates": [110.23637158908038, 31.971095307997206]}}, {"type": "Feature", "properties": {"norad_id": 30971, "name": "FENGYUN 1C DEB", "group": "fengyun-1c-debris", "lat": -54.82557974775908, "lon": 35.03386935378675, "alt_km": 658.6156355412859, "timestamp": "2025-12-04T21:36:16.152668+00:00", "meta": {"OBJECT_NAME": "FENGYUN 1C DEB", "OBJECT_ID": "1999-025BBM", "EPOCH": "2025-12-03T02:03:16.628832", "MEAN_MOTION": 14.71558053, "ECCENTRICITY": 0.01637066, "INCLINATION": 99.2113, "RA_OF_ASC_NODE": 19.6692, "ARG_OF_PERICENTER": 221.0179, "MEAN_ANOMALY": 193.8731, "EPHEMERIS_TYPE": 0, "CLASSIFICATION_TYPE": "U", "NORAD_CAT_ID": 30971, "ELEMENT_SET_NO": 999, "REV_AT_EPOCH": 99575, "BSTAR": 0.00085353718, "MEAN_MOTION_DOT": 6.475e-05, "MEAN_MOTION_DDOT": 0}, "tle": {"line1": "1 30971U 99025BBM 25337.08560913  .00006475  00000+0  85354-3 0  9996", "line2": "2 30971  99.2113  19.6692 0163706 221.0179 193.8731 14.71558053995751"}}, "geometry": {"type": "Point", "coordinates": [35.03386935378675, -54.82557974775908]}}, {"type": "Feature", "properties": {"norad_id": 30979, "name": "FENGYUN 1C DEB", "group": "fengyun-1c-debris", "lat": 21.560142695577838, "lon": 60.6659347914481, "alt_km": 675.0293804070634, "timestamp": "2025-12-04T21:36:16.152679+00:00", "meta": {"OBJECT_NAME": "FENGYUN 1C DEB", "OBJECT_ID": "1999-025BBV", "EPOCH": "2025-12-02T04:36:50.855328", "MEAN_MOTION": 14.78416107, "ECCENTRICITY": 0.01913935, "INCLINATION": 97.83, "RA_OF_ASC_NODE": 234.9135, "ARG_OF_PERICENTER": 275.775, "MEAN_ANOMALY": 240.4379, "EPHEMERIS_TYPE": 0, "CLASSIFICATION_TYPE": "U", "NORAD_CAT_ID": 30979, "ELEMENT_SET_NO": 999, "REV_AT_EPOCH": 98989, "BSTAR": 0.0013589928, "MEAN_MOTION_DOT": 0.00013437, "MEAN_MOTION_DDOT": 0}, "tle": {"line1": "1 30979U 99025BBV 25336.19225527  .00013437  00000+0  13590-2 0  9992", "line2": "2 30979  97.8300 234.9135 0191393 275.7750 240.4379 14.78416107989894"}}, "geometry": {"type": "Point", "coordinates": [60.6659347914481, 21.560142695577838]}}, {"type": "Feature", "properties": {"norad_id": 30982, "name": "FENGYUN 1C DEB", "group": "fengyun-1c-debris", "lat": 76.8244371783156, "lon": -68.79347787451867, "alt_km": 742.0133642269311, "timestamp": "2025-12-04T21:36:16.152689+00:00", "meta": {"OBJECT_NAME": "FENGYUN 1C DEB", "OBJECT_ID": "1999-025BBY", "EPOCH": "2025-12-04T06:24:36.937152", "MEAN_MOTION": 14.50900572, "ECCENTRICITY": 0.01811442, "INCLINATION": 98.2152, "RA_OF_ASC_NODE": 328.6945, "ARG_OF_PERICENTER": 338.7, "MEAN_ANOMALY": 34.1018, "EPHEMERIS_TYPE": 0, "CLASSIFICATION_TYPE": "U", "NORAD_CAT_ID": 30982, "ELEMENT_SET_NO": 999, "REV_AT_EPOCH": 70931, "BSTAR": 0.00077704382, "MEAN_MOTION_DOT": 3.741e-05, "MEAN_MOTION_DDOT": 0}, "tle": {"line1": "1 30982U 99025BBY 25338.26709418  .00003741  00000+0  77704-3 0  9997", "line2": "2 30982  98.2152 328.6945 0181144 338.7000  34.1018 14.50900572709318"}}, "geometry": {"type": "Point", "coordinates": [-68.79347787451867, 76.8244371783156]}}, {"type": "Feature", "properties": {"norad_id": 30984, "name": "FENGYUN 1C DEB", "group": "fengyun-1c-debris", "lat": -30.873306982291123, "lon": 20.36847949891616, "alt_km": 688.5420049251052, "timestamp": "2025-12-04T21:36:16.152699+00:00", "meta": {"OBJECT_NAME": "FENGYUN 1C DEB", "OBJECT_ID": "1999-025BCA", "EPOCH": "2025-12-03T01:02:26.854368", "MEAN_MOTION": 14.50329769, "ECCENTRICITY": 0.01281668, "INCLINATION": 98.2653, "RA_OF_ASC_NODE": 13.5601, "ARG_OF_PERICENTER": 37.7619, "MEAN_ANOMALY": 323.2485, "EPHEMERIS_TYPE": 0, "CLASSIFICATION_TYPE": "U", "NORAD_CAT_ID": 30984, "ELEMENT_SET_NO": 999, "REV_AT_EPOCH": 95023, "BSTAR": 0.00098864934, "MEAN_MOTION_DOT": 4.238e-05, "MEAN_MOTION_DDOT": 0}, "tle": {"line1": "1 30984U 99025BCA 25337.04336637  .00004238  00000+0  98865-3 0  9996", "line2": "2 30984  98.2653  13.5601 0128166  37.7619 323.2485 14.50329769950234"}}, "geometry": {"type": "Point", "coordinates": [20.36847949891616, -30.873306982291123]}}, {"type": "Feature", "properties": {"norad_id": 30988, "name": "FENGYUN 1C DEB", "group": "fengyun-1c-debris", "lat": -23.58538227787527, "lon": -71.07580354603336, "alt_km": 426.8488486079741, "timestamp": "2025-12-04T21:36:16.152709+00:00", "meta": {"OBJECT_NAME": "FENGYUN 1C DEB", "OBJECT_ID": "1999-025BCE", "EPOCH": "2025-12-03T07:54:06.145920", "MEAN_MOTION": 15.24405925, "ECCENTRICITY": 0.0119062, "INCLINATION": 98.5424, "RA_OF_ASC_NODE": 283.3715, "ARG_OF_PERICENTER": 12.1711, "MEAN_ANOMALY": 348.2354, "EPHEMERIS_TYPE": 0, "CLASSIFICATION_TYPE": "U", "NORAD_CAT_ID": 30988, "ELEMENT_SET_NO": 999, "REV_AT_EPOCH": 99420, "BSTAR": 0.0027943, "MEAN_MOTION_DOT": 0.00084539, "MEAN_MOTION_DDOT": 0}, "tle": {"line1": "1 30988U 99025BCE 25337.32923780  .00084539  00000+0  27943-2 0  9992", "line2": "2 30988  98.5424 283.3715 0119062  12.1711 348.2354 15.24405925994203"}}, "geometry": {"type": "Point", "coordinates": [-71.07580354603336, -23.58538227787527]}}, {"type": "Feature", "properties": {"norad_id": 30989, "name": "FENGYUN 1C DEB", "group": "fengyun-1c-debris", "lat": 16.6253543076785, "lon": 49.638542079572176, "alt_km": 863.0948603114848, "timestamp": "2025-12-04T21:36:16.152719+00:00", "meta": {"OBJECT_NAME": "FENGYUN 1C DEB", "OBJECT_ID": "1999-025BCF", "EPOCH": "2025-12-02T21:58:05.055456", "MEAN_MOTION": 14.13841846, "ECCENTRICITY": 0.00920392, "INCLINATION": 99.0546, "RA_OF_ASC_NODE": 50.3579, "ARG_OF_PERICENTER": 127.3294, "MEAN_ANOMALY": 233.6309, "EPHEMERIS_TYPE": 0, "CLASSIFICATION_TYPE": "U", "NORAD_CAT_ID": 30989, "ELEMENT_SET_NO": 999, "REV_AT_EPOCH": 95849, "BSTAR": 0.0021362586, "MEAN_MOTION_DOT": 4.171e-05, "MEAN_MOTION_DDOT": 0}, "tle": {"line1": "1 30989U 99025BCF 25336.91533629  .00004171  00000+0  21363-2 0  9990", "line2": "2 30989  99.0546  50.3579 0092039 127.3294 233.6309 14.13841846958495"}}, "geometry": {"type": "Point", "coordinates": [49.638542079572176, 16.6253543076785]}}, {"type": "Feature", "properties": {"norad_id": 30993, "name": "FENGYUN 1C DEB", "group": "fengyun-1c-debris", "lat": 68.55306667685016, "lon": 47.78540116767084, "alt_km": 757.1471479988986, "timestamp": "2025-12-04T21:36:16.152729+00:00", "meta": {"OBJECT_NAME": "FENGYUN 1C DEB", "OBJECT_ID": "1999-025BCK", "EPOCH": "2025-12-04T06:33:10.508256", "MEAN_MOTION": 14.35282971, "ECCENTRICITY": 0.00166299, "INCLINATION": 98.8475, "RA_OF_ASC_NODE": 70.5017, "ARG_OF_PERICENTER": 41.5096, "MEAN_ANOMALY": 30.1521, "EPHEMERIS_TYPE": 0, "CLASSIFICATION_TYPE": "U", "NORAD_CAT_ID": 30993, "ELEMENT_SET_NO": 999, "REV_AT_EPOCH": 96798, "BSTAR": 0.0047535346, "MEAN_MOTION_DOT": 0.00013616, "MEAN_MOTION_DDOT": 0}, "tle": {"line1": "1 30993U 99025BCK 25338.27303829  .00013616  00000+0  47535-2 0  9996", "line2": "2 30993  98.8475  70.5017 0016629  41.5096  30.1521 14.35282971967989"}}, "geometry": {"type": "Point", "coordinates": [47.78540116767084, 68.55306667685016]}}, {"type": "Feature", "properties": {"norad_id": 30994, "name": "FENGYUN 1C DEB", "group": "fengyun-1c-debris", "lat": 52.17462348494429, "lon": -23.792468189574176, "alt_km": 858.6126322976033, "timestamp": "2025-12-04T21:36:16.152739+00:00", "meta": {"OBJECT_NAME": "FENGYUN 1C DEB", "OBJECT_ID": "1999-025BCL", "EPOCH": "2025-12-04T07:44:44.291904", "MEAN_MOTION": 14.11763452, "ECCENTRICITY": 0.00174061, "INCLINATION": 98.7003, "RA_OF_ASC_NODE": 347.0223, "ARG_OF_PERICENTER": 198.7182, "MEAN_ANOMALY": 161.3352, "EPHEMERIS_TYPE": 0, "CLASSIFICATION_TYPE": "U", "NORAD_CAT_ID": 30994, "ELEMENT_SET_NO": 999, "REV_AT_EPOCH": 96466, "BSTAR": 0.00029444055, "MEAN_MOTION_DOT": 4.95e-06, "MEAN_MOTION_DDOT": 0}, "tle": {"line1": "1 30994U 99025BCL 25338.32273486  .00000495  00000+0  29444-3 0  9999", "line2": "2 30994  98.7003 347.0223 0017406 198.7182 161.3352 14.11763452964665"}}, "geometry": {"type": "Point", "coordinates": [-23.792468189574176, 52.17462348494429]}}]}